ICEYE-X39               
1 60546U 24149CG  26162.47301962  .00002949  00000+0  24275-3 0  9996
2 60546  97.6764 239.5746 0004690 133.4775 226.6839 14.99861325 99267
UMBRA-10                
1 60547U 24149CH  26162.79345683  .00015061  00000+0  74580-3 0  9993
2 60547  97.6977 249.9346 0000806  63.1711 296.9604 15.17879040 99915
ICEYE-X33               
1 60548U 24149CJ  26162.76901932  .00004238  00000+0  33745-3 0  9998
2 60548  97.7263 241.9393 0001551 105.5302 254.6093 15.00912445 99398
ICEYE-X40               
1 60549U 24149CK  26162.69135574  .00002076  00000+0  18107-3 0  9995
2 60549  97.6808 239.2749 0006525  97.6336 262.5627 14.97915898 99258
SATELIOT_1              
1 60550U 24149CL  26162.21542961  .00001941  00000+0  16904-3 0  9990
2 60550  97.6740 238.2124 0008133  97.5935 262.6212 14.98039112 99171
BRO-14                  
1 60551U 24149CM  26162.71126071  .00000694  00000+0  66708-4 0  9998
2 60551  97.6877 238.5874 0008174 110.9345 249.2752 14.96166112 99177
SATELIOT_3              
1 60552U 24149CN  26162.72551157  .00001285  00000+0  11363-3 0  9990
2 60552  97.6823 239.5014 0006083  98.7275 261.4637 14.98034385 99264
BRO-15                  
1 60553U 24149CP  26162.69364112  .00001256  00000+0  11660-3 0  9998
2 60553  97.6802 238.1763 0009701 104.5543 255.6754 14.96134605 99182
UM5-RIBAT               
1 60554U 24149CQ  26162.67263529  .00002684  00000+0  21470-3 0  9993
2 60554  97.6642 240.5472 0003742  70.2252 289.9375 15.01044972 99367
UM5-EOSAT               
1 60555U 24149CR  26162.77395051  .00003743  00000+0  29391-3 0  9998
2 60555  97.6695 241.5740 0008677 130.9513 229.2464 15.01486590 99408
LASARSAT                
1 62391U 24247Q   26160.80476977  .00035312  00000+0  71316-3 0  9997
2 62391  44.9750 303.6854 0008391 290.3514  69.6474 15.45910909 82173
CROCUBE                 
1 62394U 24247T   26162.55402786  .00037162  00000+0  70104-3 0  9990
2 62394  44.9723 291.2854 0008283 303.5524  56.4575 15.47864361 82477
TEVEL2-4                
1 63213U 25052D   26162.70463612  .00017902  00000+0  53861-3 0  9999
2 63213  97.3917  59.0886 0004732 113.7416 246.4323 15.34420215 69273
TEVEL2-5                
1 63214U 25052E   26162.65930424  .00017637  00000+0  53362-3 0  9995
2 63214  97.3921  58.9918 0004616 115.2111 244.9611 15.34247244 69264
TEVEL2-6                
1 63215U 25052F   26162.67150742  .00017453  00000+0  52870-3 0  9994
2 63215  97.3921  58.9890 0004506 114.2026 245.9689 15.34210437 69266
TEVEL2-1                
1 63217U 25052H   26162.69862928  .00016389  00000+0  50495-3 0  9992
2 63217  97.3892  58.6467 0004481 124.0183 236.1485 15.33685523 69253
TEVEL2-3                
1 63218U 25052J   26162.69346801  .00016740  00000+0  51483-3 0  9999
2 63218  97.3895  58.6628 0004465 124.0241 236.1426 15.33739822 69250
TEVEL2-2                
1 63219U 25052K   26162.63372872  .00016607  00000+0  51153-3 0  9997
2 63219  97.3892  58.5842 0004438 124.7997 235.3663 15.33691849 69249
TEVEL2-9                
1 63237U 25052AD  26162.66933140  .00015595  00000+0  51070-3 0  9994
2 63237  97.3955  58.0067 0007180 145.2035 214.9678 15.31729289 69181
TEVEL2-7                
1 63238U 25052AE  26162.64384617  .00015266  00000+0  50453-3 0  9991
2 63238  97.3956  57.8996 0007384 146.6025 213.5683 15.31438085 69172
TEVEL2-8                
1 63239U 25052AF  26162.65204074  .00015443  00000+0  51057-3 0  9999
2 63239  97.3954  57.8849 0007385 147.5513 212.6184 15.31421974 69176
FORESAIL-1 PRIME        
1 66778U 25276DS  26162.72546226  .00004150  00000+0  20353-3 0  9992
2 66778  97.4203 236.0962 0003844 114.4750 245.6885 15.18652185 29573
