OBJECT_NAME,OBJECT_ID,EPOCH,MEAN_MOTION,ECCENTRICITY,INCLINATION,RA_OF_ASC_NODE,ARG_OF_PERICENTER,MEAN_ANOMALY,EPHEMERIS_TYPE,CLASSIFICATION_TYPE,NORAD_CAT_ID,ELEMENT_SET_NO,REV_AT_EPOCH,BSTAR,MEAN_MOTION_DOT,MEAN_MOTION_DDOT
ICEYE-X39,2024-149CG,2026-06-11T11:21:08.895168,14.99861325,.000469,97.6764,239.5746,133.4775,226.6839,0,U,60546,999,9926,.24275E-3,.2949E-4,0
UMBRA-10,2024-149CH,2026-06-11T19:02:34.670112,15.17879040,.0000806,97.6977,249.9346,63.1711,296.9604,0,U,60547,999,9991,.7458E-3,.15061E-3,0
ICEYE-X33,2024-149CJ,2026-06-11T18:27:23.269248,15.00912445,.0001551,97.7263,241.9393,105.5302,254.6093,0,U,60548,999,9939,.33745E-3,.4238E-4,0
ICEYE-X40,2024-149CK,2026-06-11T16:35:33.135936,14.97915898,.0006525,97.6808,239.2749,97.6336,262.5627,0,U,60549,999,9925,.18107E-3,.2076E-4,0
SATELIOT_1,2024-149CL,2026-06-11T05:10:13.118304,14.98039112,.0008133,97.6740,238.2124,97.5935,262.6212,0,U,60550,999,9917,.16904E-3,.1941E-4,0
BRO-14,2024-149CM,2026-06-11T17:04:12.925344,14.96166112,.0008174,97.6877,238.5874,110.9345,249.2752,0,U,60551,999,9917,.66708E-4,.694E-5,0
SATELIOT_3,2024-149CN,2026-06-11T17:24:44.199648,14.98034385,.0006083,97.6823,239.5014,98.7275,261.4637,0,U,60552,999,9926,.11363E-3,.1285E-4,0
BRO-15,2024-149CP,2026-06-11T16:38:50.592768,14.96134605,.0009701,97.6802,238.1763,104.5543,255.6754,0,U,60553,999,9918,.1166E-3,.1256E-4,0
UM5-RIBAT,2024-149CQ,2026-06-11T16:08:35.689056,15.01044972,.0003742,97.6642,240.5472,70.2252,289.9375,0,U,60554,999,9936,.2147E-3,.2684E-4,0
UM5-EOSAT,2024-149CR,2026-06-11T18:34:29.324064,15.01486590,.0008677,97.6695,241.5740,130.9513,229.2464,0,U,60555,999,9940,.29391E-3,.3743E-4,0
LASARSAT,2024-247Q,2026-06-09T19:18:52.108128,15.45910909,.0008391,44.9750,303.6854,290.3514,69.6474,0,U,62391,999,8217,.71316E-3,.35312E-3,0
CROCUBE,2024-247T,2026-06-11T13:17:48.007104,15.47864361,.0008283,44.9723,291.2854,303.5524,56.4575,0,U,62394,999,8247,.70104E-3,.37162E-3,0
TEVEL2-4,2025-052D,2026-06-11T16:54:40.560768,15.34420215,.0004732,97.3917,59.0886,113.7416,246.4323,0,U,63213,999,6927,.53861E-3,.17902E-3,0
TEVEL2-5,2025-052E,2026-06-11T15:49:23.886336,15.34247244,.0004616,97.3921,58.9918,115.2111,244.9611,0,U,63214,999,6926,.53362E-3,.17637E-3,0
TEVEL2-6,2025-052F,2026-06-11T16:06:58.241088,15.34210437,.0004506,97.3921,58.9890,114.2026,245.9689,0,U,63215,999,6926,.5287E-3,.17453E-3,0
TEVEL2-1,2025-052H,2026-06-11T16:46:01.569792,15.33685523,.0004481,97.3892,58.6467,124.0183,236.1485,0,U,63217,999,6925,.50495E-3,.16389E-3,0
TEVEL2-3,2025-052J,2026-06-11T16:38:35.636064,15.33739822,.0004465,97.3895,58.6628,124.0241,236.1426,0,U,63218,999,6925,.51483E-3,.1674E-3,0
TEVEL2-2,2025-052K,2026-06-11T15:12:34.161408,15.33691849,.0004438,97.3892,58.5842,124.7997,235.3663,0,U,63219,999,6924,.51153E-3,.16607E-3,0
TEVEL2-9,2025-052AD,2026-06-11T16:03:50.232960,15.31729289,.000718,97.3955,58.0067,145.2035,214.9678,0,U,63237,999,6918,.5107E-3,.15595E-3,0
TEVEL2-7,2025-052AE,2026-06-11T15:27:08.309088,15.31438085,.0007384,97.3956,57.8996,146.6025,213.5683,0,U,63238,999,6917,.50453E-3,.15266E-3,0
TEVEL2-8,2025-052AF,2026-06-11T15:38:56.319936,15.31421974,.0007385,97.3954,57.8849,147.5513,212.6184,0,U,63239,999,6917,.51057E-3,.15443E-3,0
FORESAIL-1 PRIME,2025-276DS,2026-06-11T17:24:39.939264,15.18652185,.0003844,97.4203,236.0962,114.4750,245.6885,0,U,66778,999,2957,.20353E-3,.415E-4,0
